STARLINK-37491          
1 69166U 26111U   26157.83335647  .00092815  00000+0  53429-3 0  9999
2 69166  53.1588 203.4661 0000738 104.8138 262.1321 15.77984071  3880
STARLINK-37474          
1 69167U 26111V   26157.83335647  .00086138  00000+0  49664-3 0  9997
2 69167  53.1590 203.4359 0000985  98.2680 283.1989 15.77978439  3884
STARLINK-37469          
1 69168U 26111W   26157.83335647 -.02620631  00000+0 -20556-1 0  9991
2 69168  53.1591 203.4154 0000761  76.5799 314.9782 15.74202145  3886
STARLINK-37515          
1 69169U 26111X   26157.83335647  .00075803  00000+0  43785-3 0  9994
2 69169  53.1592 203.4169 0001224  88.3667 302.4211 15.77988399  3888
STARLINK-37437          
1 69170U 26111Y   26157.69752449  .00149746  00000+0  74851-3 0  9999
2 69170  53.1586 204.0510 0000733  63.0627 297.0470 15.80891266  2605
STARLINK-37392          
1 69171U 26111Z   26157.83335647  .00222809  00000+0  12581-2 0  9996
2 69171  53.1587 203.3369 0000533  49.6489  19.7271 15.77979345  3885
STARLINK-37472          
1 69172U 26111AA  26157.83335647 -.02111313  00000+0 -12208-1 0  9993
2 69172  53.1586 203.3131 0001345  52.9973  27.6813 15.81314657  3883
STARLINK-37461          
1 69173U 26111AB  26157.83335647 -.02607097  00000+0 -18910-1 0  9999
2 69173  53.1589 203.3837 0000778  70.7995 335.7056 15.75957197  3888
STARLINK-37333          
1 69174U 26111AC  26157.83335647  .00069795  00000+0  40364-3 0  9993
2 69174  53.1586 203.3974 0000950 112.3999 287.5598 15.77993560  3888
STARLINK-37385          
1 69175U 26111AD  26157.83335647 -.01703019  00000+0 -11498-1 0  9995
2 69175  53.1587 203.3665 0000938  64.8777 349.9061 15.77237340  3883
STARLINK-37414          
1 69176U 26111AE  26157.83335647  .00173648  00000+0  98788-3 0  9991
2 69176  53.1587 203.3461 0001204 103.2016 321.6155 15.77960717  3881
STRIX-7                 
1 69177U 26112A   26157.72628655  .00004804  00000+0  38236-3 0  9994
2 69177  44.9065 247.3905 0024224 348.2422  11.7882 15.01379808  2303
SHENZHOU-23 (SZ-23)     
1 69180U 26113A   26157.60981134  .00029051  00000+0  34664-3 0  9992
2 69180  41.4693  26.3518 0009161 355.2486   4.8264 15.60358302291254
STARLINK-37380          
1 69182U 26114A   26157.83335647 -.00016717  00000+0 -92664-4 0  9994
2 69182  53.1584 254.1840 0000937 102.5085 259.8418 15.78044171  3141
STARLINK-37089          
1 69183U 26114B   26157.83335647 -.00015610  00000+0 -86300-4 0  9996
2 69183  53.1584 254.1729 0000758  84.2577 283.4092 15.78035186  3148
STARLINK-37428          
1 69184U 26114C   26157.83335647 -.00002394  00000+0 -99565-5 0  9990
2 69184  53.1583 254.1570 0000786  78.2103 297.4413 15.78039366  3147
STARLINK-37237          
1 69185U 26114D   26157.83335647 -.00023550  00000+0 -13186-3 0  9991
2 69185  53.1584 254.1239 0001172  79.6742 311.6616 15.78104428  3141
STARLINK-37365          
1 69186U 26114E   26157.83335647 -.00007226  00000+0 -37825-4 0  9991
2 69186  53.1585 254.1277 0001032  81.1446 308.3722 15.78045206  3148
STARLINK-37209          
1 69187U 26114F   26157.83335647 -.00017641  00000+0 -97994-4 0  9997
2 69187  53.1584 254.1188 0001106  77.6224 316.2880 15.78046978  3145
STARLINK-37359          
1 69188U 26114G   26157.83335647 -.00000806  00000+0 -80080-6 0  9993
2 69188  53.1585 254.1134 0000630  91.0621 305.3606 15.78035519  3144
STARLINK-37440          
1 69189U 26114H   26157.83335647 -.01605525  00000+0 -81310-2 0  9997
2 69189  53.1568 253.7322 0001034  71.3356 148.8558 15.83728691  3147
STARLINK-37282          
1 69190U 26114J   26157.83335647 -.00039993  00000+0 -19983-3 0  9996
2 69190  53.1584 254.0662 0001160  77.6108 341.6250 15.80892404  3145
STARLINK-37422          
1 69191U 26114K   26157.83335647 -.00016424  00000+0 -79838-4 0  9997
2 69191  53.1586 254.0462 0001014 118.1929 310.8640 15.80870899  3141
STARLINK-37424          
1 69192U 26114L   26157.83335647  .00016932  00000+0  89291-4 0  9994
2 69192  53.1585 254.0578 0000750  70.9290 352.6024 15.80839386  3147
STARLINK-36666          
1 69193U 26114M   26157.83335647  .00046153  00000+0  23646-3 0  9994
2 69193  53.1586 254.0489 0001364  70.4738 357.3265 15.80841776  3149
STARLINK-37355          
1 69194U 26114N   26157.83335647 -.00008795  00000+0 -41097-4 0  9998
2 69194  53.1585 254.0403 0000931  78.9834 353.0862 15.80856840  3148
STARLINK-37166          
1 69195U 26114P   26157.83335647 -.00011381  00000+0 -54230-4 0  9997
2 69195  53.1588 254.0222 0001029  51.6477  28.9601 15.80860684  3141
