OBJECT_NAME,OBJECT_ID,EPOCH,MEAN_MOTION,ECCENTRICITY,INCLINATION,RA_OF_ASC_NODE,ARG_OF_PERICENTER,MEAN_ANOMALY,EPHEMERIS_TYPE,CLASSIFICATION_TYPE,NORAD_CAT_ID,ELEMENT_SET_NO,REV_AT_EPOCH,BSTAR,MEAN_MOTION_DOT,MEAN_MOTION_DDOT
STARLINK-37491,2026-111U,2026-06-06T20:00:01.999008,15.77984071,.0000738,53.1588,203.4661,104.8138,262.1321,0,U,69166,999,388,.53429E-3,.92815E-3,0
STARLINK-37474,2026-111V,2026-06-06T20:00:01.999008,15.77978439,.0000985,53.1590,203.4359,98.2680,283.1989,0,U,69167,999,388,.49664E-3,.86138E-3,0
STARLINK-37469,2026-111W,2026-06-06T20:00:01.999008,15.74202145,.0000761,53.1591,203.4154,76.5799,314.9782,0,U,69168,999,388,-.20556E-1,-.2620631E-1,0
STARLINK-37515,2026-111X,2026-06-06T20:00:01.999008,15.77988399,.0001224,53.1592,203.4169,88.3667,302.4211,0,U,69169,999,388,.43785E-3,.75803E-3,0
STARLINK-37437,2026-111Y,2026-06-06T16:44:26.115936,15.80891266,.0000733,53.1586,204.0510,63.0627,297.0470,0,U,69170,999,260,.74851E-3,.149746E-2,0
STARLINK-37392,2026-111Z,2026-06-06T20:00:01.999008,15.77979345,.0000533,53.1587,203.3369,49.6489,19.7271,0,U,69171,999,388,.12581E-2,.222809E-2,0
STARLINK-37472,2026-111AA,2026-06-06T20:00:01.999008,15.81314657,.0001345,53.1586,203.3131,52.9973,27.6813,0,U,69172,999,388,-.12208E-1,-.2111313E-1,0
STARLINK-37461,2026-111AB,2026-06-06T20:00:01.999008,15.75957197,.0000778,53.1589,203.3837,70.7995,335.7056,0,U,69173,999,388,-.1891E-1,-.2607097E-1,0
STARLINK-37333,2026-111AC,2026-06-06T20:00:01.999008,15.77993560,.000095,53.1586,203.3974,112.3999,287.5598,0,U,69174,999,388,.40364E-3,.69795E-3,0
STARLINK-37385,2026-111AD,2026-06-06T20:00:01.999008,15.77237340,.0000938,53.1587,203.3665,64.8777,349.9061,0,U,69175,999,388,-.11498E-1,-.1703019E-1,0
STARLINK-37414,2026-111AE,2026-06-06T20:00:01.999008,15.77960717,.0001204,53.1587,203.3461,103.2016,321.6155,0,U,69176,999,388,.98788E-3,.173648E-2,0
STRIX-7,2026-112A,2026-06-06T17:25:51.157920,15.01379808,.0024224,44.9065,247.3905,348.2422,11.7882,0,U,69177,999,230,.38236E-3,.4804E-4,0
SHENZHOU-23 (SZ-23),2026-113A,2026-06-06T14:38:07.699776,15.60358302,.00091619,41.4693,26.3518,355.2486,4.8264,0,U,69180,999,29125,.3466432E-3,.29051E-3,0
STARLINK-37380,2026-114A,2026-06-06T20:00:01.999008,15.78044171,.0000937,53.1584,254.1840,102.5085,259.8418,0,U,69182,999,314,-.92664E-4,-.16717E-3,0
STARLINK-37089,2026-114B,2026-06-06T20:00:01.999008,15.78035186,.0000758,53.1584,254.1729,84.2577,283.4092,0,U,69183,999,314,-.863E-4,-.1561E-3,0
STARLINK-37428,2026-114C,2026-06-06T20:00:01.999008,15.78039366,.0000786,53.1583,254.1570,78.2103,297.4413,0,U,69184,999,314,-.99565E-5,-.2394E-4,0
STARLINK-37237,2026-114D,2026-06-06T20:00:01.999008,15.78104428,.0001172,53.1584,254.1239,79.6742,311.6616,0,U,69185,999,314,-.13186E-3,-.2355E-3,0
STARLINK-37365,2026-114E,2026-06-06T20:00:01.999008,15.78045206,.0001032,53.1585,254.1277,81.1446,308.3722,0,U,69186,999,314,-.37825E-4,-.7226E-4,0
STARLINK-37209,2026-114F,2026-06-06T20:00:01.999008,15.78046978,.0001106,53.1584,254.1188,77.6224,316.2880,0,U,69187,999,314,-.97994E-4,-.17641E-3,0
STARLINK-37359,2026-114G,2026-06-06T20:00:01.999008,15.78035519,.000063,53.1585,254.1134,91.0621,305.3606,0,U,69188,999,314,-.8008E-6,-.806E-5,0
STARLINK-37440,2026-114H,2026-06-06T20:00:01.999008,15.83728691,.0001034,53.1568,253.7322,71.3356,148.8558,0,U,69189,999,314,-.8131E-2,-.1605525E-1,0
STARLINK-37282,2026-114J,2026-06-06T20:00:01.999008,15.80892404,.000116,53.1584,254.0662,77.6108,341.6250,0,U,69190,999,314,-.19983E-3,-.39993E-3,0
STARLINK-37422,2026-114K,2026-06-06T20:00:01.999008,15.80870899,.0001014,53.1586,254.0462,118.1929,310.8640,0,U,69191,999,314,-.79838E-4,-.16424E-3,0
STARLINK-37424,2026-114L,2026-06-06T20:00:01.999008,15.80839386,.000075,53.1585,254.0578,70.9290,352.6024,0,U,69192,999,314,.89291E-4,.16932E-3,0
STARLINK-36666,2026-114M,2026-06-06T20:00:01.999008,15.80841776,.0001364,53.1586,254.0489,70.4738,357.3265,0,U,69193,999,314,.23646E-3,.46153E-3,0
STARLINK-37355,2026-114N,2026-06-06T20:00:01.999008,15.80856840,.0000931,53.1585,254.0403,78.9834,353.0862,0,U,69194,999,314,-.41097E-4,-.8795E-4,0
STARLINK-37166,2026-114P,2026-06-06T20:00:01.999008,15.80860684,.0001029,53.1588,254.0222,51.6477,28.9601,0,U,69195,999,314,-.5423E-4,-.11381E-3,0
